SHIJIAN-17 (SJ-17)      
1 41838U 16065A   26180.41763052  .00000129  00000+0  00000+0 0  9997
2 41838   5.7825  72.4609 0002263  31.2993 181.6142  0.99859882 35325
GOES 16                 
1 41866U 16071A   26181.42323465 -.00000081  00000+0  00000+0 0  9995
2 41866   0.3729  85.5110 0000612  21.6977 218.9559  1.00272064 35233
TIANLIAN 1-04           
1 41869U 16072A   26181.55029323  .00000041  00000+0  00000+0 0  9994
2 41869   0.9027  82.8385 0043065  90.3881 120.3153  1.00274368 35430
WGS F8 (USA 272)        
1 41879U 16075A   26181.40461566  .00000000  00000+0  00000+0 0  9996
2 41879   0.0483  59.1040 0000223 148.1005   6.7973  1.00266774 34957
FENGYUN 4A              
1 41882U 16077A   26181.53972524 -.00000348  00000+0  00000+0 0  9993
2 41882   2.3554  80.1435 0007912 158.0034 358.4582  1.00277229 35064
ECHOSTAR 19             
1 41893U 16079A   26180.83814689 -.00000128  00000+0  00000+0 0  9992
2 41893   0.0185  24.7623 0001529  76.8617  20.9216  1.00274001 34830
JCSAT-110A (JCSAT-15)   
1 41903U 16082A   26181.53864119 -.00000340  00000+0  00000+0 0  9995
2 41903   0.0187  13.6178 0000855  90.9505 118.0171  1.00270341 34898
STAR ONE D1             
1 41904U 16082B   26181.49860066 -.00000200  00000+0  00000+0 0  9993
2 41904   0.0038 359.1694 0002457 117.4208 257.4757  1.00272111 34907
TJS-2                   
1 41911U 17001A   26181.52844390  .00000003  00000+0  00000+0 0  9999
2 41911   0.8663  85.1739 0000833  50.6402  39.5663  1.00272888 34853
SBIRS GEO-4 (USA 273)   
1 41937U 17004A   26181.30545749  .00000134  00000+0  00000+0 0  9997
2 41937   2.2669  43.6174 0003055  55.4339 310.2761  1.00286247 34735
HISPASAT 36W-1          
1 41942U 17006A   26181.15161517 -.00000233  00000+0  00000+0 0  9996
2 41942   0.0131 279.7540 0001092 170.7506 206.3040  1.00273083 34375
TELKOM 3S               
1 41944U 17007A   26181.32473978 -.00000352  00000+0  00000+0 0  9997
2 41944   0.0230  76.9567 0002518  24.0057  52.3441  1.00271221 34274
INTELSAT 32E (IS-32E)   
1 41945U 17007B   26180.50866479  .00000000  00000+0  00000+0 0  9998
2 41945   0.0243  13.6582 0000889 344.8527  59.0307  1.00268307 34342
ECHOSTAR 23             
1 42070U 17014A   26181.51021332 -.00000047  00000+0  00000+0 0  9991
2 42070   0.0179   6.8407 0001947  92.9822 252.5352  1.00271838 34056
WGS F9 (USA 275)        
1 42075U 17016A   26180.94767140  .00000000  00000+0  00000+0 0  9996
2 42075   0.0264   3.7352 0000418  57.7241 185.7413  1.00270959 34022
SES-10                  
1 42432U 17017A   26181.50198067 -.00000262  00000+0  00000+0 0  9994
2 42432   0.0179  36.2420 0003034  66.9446 289.1941  1.00269289 33889
CHINASAT 16 (SJ-13)     
1 42662U 17018A   26181.10928231 -.00000342  00000+0  00000+0 0  9999
2 42662   0.0947  90.2461 0003755 122.3355 215.4609  1.00274688 33879
KOREASAT 7              
1 42691U 17023A   26181.32430645 -.00000351  00000+0  00000+0 0  9998
2 42691   0.0280  37.9037 0000574  56.5355  56.5997  1.00269987 33502
SGDC                    
1 42692U 17023B   26181.43434614 -.00000239  00000+0  00000+0 0  9996
2 42692   0.0310  67.2242 0002822  37.2466 255.5558  1.00271897 33538
GSAT-9                  
1 42695U 17024A   26181.46323700 -.00000276  00000+0  00000+0 0  9997
2 42695   0.0499  89.5261 0002091  20.5295  72.5489  1.00273553 33430
INMARSAT 5-F4           
1 42698U 17025A   26180.98864157  .00000000  00000+0  00000+0 0  9997
2 42698   0.0277  32.9066 0000259  35.9273 261.6493  1.00270494 33406
SES-15                  
1 42709U 17026A   26181.60863166  .00000071  00000+0  00000+0 0  9998
2 42709   0.0220 335.3231 0000739 109.5111 283.7837  1.00268825  7563
QZS-2 (MICHIBIKI-2)     
1 42738U 17028A   26181.47394152 -.00000114  00000+0  00000+0 0  9990
2 42738  39.4073 242.9582 0758809 269.4153  78.9182  1.00280487  7755
VIASAT-2                
1 42740U 17029A   26180.57460944 -.00000254  00000+0  00000+0 0  9992
2 42740   0.0183 302.2304 0000500 140.7256 331.6830  1.00273030 33326
EUTELSAT 172B           
1 42741U 17029B   26181.17891799  .00000005  00000+0  00000+0 0  9999
2 42741   0.0252 116.7170 0000294 329.0047  68.9428  1.00271687 33872
GSAT-19                 
1 42747U 17031A   26181.52471722  .00000000  00000+0  00000+0 0  9992
2 42747   0.0218  37.3382 0007058  42.3292  75.6923  1.00272819 33283
ECHOSTAR 21             
1 42749U 17032A   26181.51723407  .00000078  00000+0  00000+0 0  9999
2 42749   1.7698 356.5504 0002581  95.1200  23.4050  1.00274394 33235
BULGARIASAT-1           
1 42801U 17038A   26181.30173081  .00000022  00000+0  00000+0 0  9997
2 42801   0.0363  73.3496 0003006  30.7332 284.8057  1.00270596 32973
HELLAS-SAT 3            
1 42814U 17040A   26181.52298389  .00000163  00000+0  00000+0 0  9993
2 42814   0.0467  44.1823 0004202  18.6072  83.0666  1.00271253 32940
GSAT-17                 
1 42815U 17040B   26181.46245699 -.00000247  00000+0  00000+0 0  9997
2 42815   0.0375  86.3856 0001354 198.4027 253.7316  1.00271395 32928
INTELSAT 35E (IS-35E)   
1 42818U 17041A   26181.41427563  .00000000  00000+0  00000+0 0  9994
2 42818   0.0224  21.3559 0002344  77.7802 293.9857  1.00267734 32943
COSMOS 2520             
1 42907U 17046A   26181.16764859  .00000148  00000+0  00000+0 0  9995
2 42907   0.0418 103.8071 0000635  23.8418 255.9278  1.00265800 32529
