OBJECT_NAME,OBJECT_ID,EPOCH,MEAN_MOTION,ECCENTRICITY,INCLINATION,RA_OF_ASC_NODE,ARG_OF_PERICENTER,MEAN_ANOMALY,EPHEMERIS_TYPE,CLASSIFICATION_TYPE,NORAD_CAT_ID,ELEMENT_SET_NO,REV_AT_EPOCH,BSTAR,MEAN_MOTION_DOT,MEAN_MOTION_DDOT
SHIJIAN-17 (SJ-17),2016-065A,2026-06-29T10:01:23.276928,0.99859882,.0002263,5.7825,72.4609,31.2993,181.6142,0,U,41838,999,3532,0,.129E-5,0
GOES 16,2016-071A,2026-06-30T10:09:27.473760,1.00272064,.00006128,0.3729,85.5110,21.6977,218.9559,0,U,41866,999,3523,0,-.81E-6,0
TIANLIAN 1-04,2016-072A,2026-06-30T13:12:25.335072,1.00274368,.00430651,0.9027,82.8385,90.3881,120.3153,0,U,41869,999,3543,0,.41E-6,0
WGS F8 (USA 272),2016-075A,2026-06-30T09:42:38.793024,1.00266774,.00002235,0.0483,59.1040,148.1005,6.7973,0,U,41879,999,3495,0,0,0
FENGYUN 4A,2016-077A,2026-06-30T12:57:12.260736,1.00277229,.00079125,2.3554,80.1435,158.0034,358.4582,0,U,41882,999,3506,0,-.348E-5,0
ECHOSTAR 19,2016-079A,2026-06-29T20:06:55.891296,1.00274001,.00015291,0.0185,24.7623,76.8617,20.9216,0,U,41893,999,3483,0,-.128E-5,0
JCSAT-110A (JCSAT-15),2016-082A,2026-06-30T12:55:38.598816,1.00270341,.00008554,0.0187,13.6178,90.9505,118.0171,0,U,41903,999,3489,0,-.34E-5,0
STAR ONE D1,2016-082B,2026-06-30T11:57:59.097024,1.00272111,.0002457,0.0038,359.1694,117.4208,257.4757,0,U,41904,999,3490,0,-.2E-5,0
TJS-2,2017-001A,2026-06-30T12:40:57.552960,1.00272888,.00008334,0.8663,85.1739,50.6402,39.5663,0,U,41911,999,3485,0,.3E-7,0
SBIRS GEO-4 (USA 273),2017-004A,2026-06-30T07:19:51.527136,1.00286247,.00030557,2.2669,43.6174,55.4339,310.2761,0,U,41937,999,3473,0,.134E-5,0
HISPASAT 36W-1,2017-006A,2026-06-30T03:38:19.550688,1.00273083,.00010925,0.0131,279.7540,170.7506,206.3040,0,U,41942,999,3437,0,-.233E-5,0
TELKOM 3S,2017-007A,2026-06-30T07:47:37.516992,1.00271221,.00025186,0.0230,76.9567,24.0057,52.3441,0,U,41944,999,3427,0,-.352E-5,0
INTELSAT 32E (IS-32E),2017-007B,2026-06-29T12:12:28.637856,1.00268307,.0000889,0.0243,13.6582,344.8527,59.0307,0,U,41945,999,3434,0,0,0
ECHOSTAR 23,2017-014A,2026-06-30T12:14:42.430848,1.00271838,.00019474,0.0179,6.8407,92.9822,252.5352,0,U,42070,999,3405,0,-.47E-6,0
WGS F9 (USA 275),2017-016A,2026-06-29T22:44:38.808960,1.00270959,.00004185,0.0264,3.7352,57.7241,185.7413,0,U,42075,999,3402,0,0,0
SES-10,2017-017A,2026-06-30T12:02:51.129888,1.00269289,.00030344,0.0179,36.2420,66.9446,289.1941,0,U,42432,999,3388,0,-.262E-5,0
CHINASAT 16 (SJ-13),2017-018A,2026-06-30T02:37:21.991584,1.00274688,.00037559,0.0947,90.2461,122.3355,215.4609,0,U,42662,999,3387,0,-.342E-5,0
KOREASAT 7,2017-023A,2026-06-30T07:47:00.077280,1.00269987,.0000574,0.0280,37.9037,56.5355,56.5997,0,U,42691,999,3350,0,-.351E-5,0
SGDC,2017-023B,2026-06-30T10:25:27.506496,1.00271897,.00028224,0.0310,67.2242,37.2466,255.5558,0,U,42692,999,3353,0,-.239E-5,0
GSAT-9,2017-024A,2026-06-30T11:07:03.676800,1.00273553,.00020917,0.0499,89.5261,20.5295,72.5489,0,U,42695,999,3343,0,-.276E-5,0
INMARSAT 5-F4,2017-025A,2026-06-29T23:43:38.631648,1.00270494,.00002591,0.0277,32.9066,35.9273,261.6493,0,U,42698,999,3340,0,0,0
SES-15,2017-026A,2026-06-30T14:36:25.775424,1.00268825,.00007392,0.0220,335.3231,109.5111,283.7837,0,U,42709,999,756,0,.71E-6,0
QZS-2 (MICHIBIKI-2),2017-028A,2026-06-30T11:22:28.547328,1.00280487,.07588097,39.4073,242.9582,269.4153,78.9182,0,U,42738,999,775,0,-.114E-5,0
VIASAT-2,2017-029A,2026-06-29T13:47:26.255616,1.00273030,.00005004,0.0183,302.2304,140.7256,331.6830,0,U,42740,999,3332,0,-.254E-5,0
EUTELSAT 172B,2017-029B,2026-06-30T04:17:38.514336,1.00271687,.00002941,0.0252,116.7170,329.0047,68.9428,0,U,42741,999,3387,0,.5E-7,0
GSAT-19,2017-031A,2026-06-30T12:35:35.567808,1.00272819,.00070587,0.0218,37.3382,42.3292,75.6923,0,U,42747,999,3328,0,0,0
ECHOSTAR 21,2017-032A,2026-06-30T12:24:49.023648,1.00274394,.0002581,1.7698,356.5504,95.1200,23.4050,0,U,42749,999,3323,0,.78E-6,0
BULGARIASAT-1,2017-038A,2026-06-30T07:14:29.541984,1.00270596,.00030064,0.0363,73.3496,30.7332,284.8057,0,U,42801,999,3297,0,.22E-6,0
HELLAS-SAT 3,2017-040A,2026-06-30T12:33:05.808096,1.00271253,.00042026,0.0467,44.1823,18.6072,83.0666,0,U,42814,999,3294,0,.163E-5,0
GSAT-17,2017-040B,2026-06-30T11:05:56.283936,1.00271395,.0001354,0.0375,86.3856,198.4027,253.7316,0,U,42815,999,3292,0,-.247E-5,0
INTELSAT 35E (IS-35E),2017-041A,2026-06-30T09:56:33.414432,1.00267734,.00023447,0.0224,21.3559,77.7802,293.9857,0,U,42818,999,3294,0,0,0
COSMOS 2520,2017-046A,2026-06-30T04:01:24.838176,1.00265800,.0000635,0.0418,103.8071,23.8418,255.9278,0,U,42907,999,3252,0,.148E-5,0
